{
  "type": "FeatureCollection",
  "features": [
    {
      "type": "Feature",
      "properties": {
        "norad_id": 30663,
        "name": "FENGYUN 1C DEB",
        "group": "fengyun-1c-debris",
        "lat": -77.9225952544145,
        "lon": -51.594963279808205,
        "alt_km": 1452.0659163598084,
        "timestamp": "2025-12-06T20:37:56.350102+00:00",
        "meta_object_name": "FENGYUN 1C DEB",
        "meta_object_id": "1999-025APV",
        "meta_epoch": "2025-12-05T12:25:41.665440",
        "meta_mean_motion": 13.23094732,
        "meta_eccentricity": 0.06475188,
        "meta_inclination": 99.3024,
        "meta_ra_of_asc_node": 257.2057,
        "meta_arg_of_pericenter": 154.1824,
        "meta_mean_anomaly": 209.3175,
        "meta_ephemeris_type": 0,
        "meta_classification_type": "U",
        "meta_norad_cat_id": 30663,
        "meta_element_set_no": 999,
        "meta_rev_at_epoch": 88952,
        "meta_bstar": 0.0022629214,
        "meta_mean_motion_dot": 2.911e-05,
        "meta_mean_motion_ddot": 0,
        "tle_line1": "1 30663U 99025APV 25339.51784335  .00002911  00000+0  22629-2 0  9996",
        "tle_line2": "2 30663  99.3024 257.2057 0647518 154.1824 209.3175 13.23094732889524"
      },
      "geometry": {
        "type": "Point",
        "coordinates": [
          -51.594963279808205,
          -77.9225952544145
        ]
      }
    },
    {
      "type": "Feature",
      "properties": {
        "norad_id": 30665,
        "name": "FENGYUN 1C DEB",
        "group": "fengyun-1c-debris",
        "lat": 30.16470000561596,
        "lon": -53.10996359121887,
        "alt_km": 898.3194157293965,
        "timestamp": "2025-12-06T20:37:56.350112+00:00",
        "meta_object_name": "FENGYUN 1C DEB",
        "meta_object_id": "1999-025APX",
        "meta_epoch": "2025-12-05T11:03:31.169088",
        "meta_mean_motion": 14.12276088,
        "meta_eccentricity": 0.00677678,
        "meta_inclination": 99.2076,
        "meta_ra_of_asc_node": 310.863,
        "meta_arg_of_pericenter": 223.3487,
        "meta_mean_anomaly": 258.8154,
        "meta_ephemeris_type": 0,
        "meta_classification_type": "U",
        "meta_norad_cat_id": 30665,
        "meta_element_set_no": 999,
        "meta_rev_at_epoch": 95867,
        "meta_bstar": 0.0030616319,
        "meta_mean_motion_dot": 5.713e-05,
        "meta_mean_motion_ddot": 0,
        "tle_line1": "1 30665U 99025APX 25339.46077742  .00005713  00000+0  30616-2 0  9997",
        "tle_line2": "2 30665  99.2076 310.8630 0067767 223.3487 258.8154 14.12276088958675"
      },
      "geometry": {
        "type": "Point",
        "coordinates": [
          -53.10996359121887,
          30.16470000561596
        ]
      }
    },
    {
      "type": "Feature",
      "properties": {
        "norad_id": 30666,
        "name": "FENGYUN 1C DEB",
        "group": "fengyun-1c-debris",
        "lat": 46.12434972150505,
        "lon": -44.633513752228865,
        "alt_km": 898.1283290791289,
        "timestamp": "2025-12-06T20:37:56.350123+00:00",
        "meta_object_name": "FENGYUN 1C DEB",
        "meta_object_id": "1999-025APY",
        "meta_epoch": "2025-12-06T10:54:23.533056",
        "meta_mean_motion": 14.02550085,
        "meta_eccentricity": 0.00608453,
        "meta_inclination": 98.8223,
        "meta_ra_of_asc_node": 324.2693,
        "meta_arg_of_pericenter": 161.3104,
        "meta_mean_anomaly": 1.244,
        "meta_ephemeris_type": 0,
        "meta_classification_type": "U",
        "meta_norad_cat_id": 30666,
        "meta_element_set_no": 999,
        "meta_rev_at_epoch": 96022,
        "meta_bstar": 0.00031686418,
        "meta_mean_motion_dot": 4.54e-06,
        "meta_mean_motion_ddot": 0,
        "tle_line1": "1 30666U 99025APY 25340.45443904  .00000454  00000+0  31686-3 0  9992",
        "tle_line2": "2 30666  98.8223 324.2693 0060845 161.3104   1.2440 14.02550085960223"
      },
      "geometry": {
        "type": "Point",
        "coordinates": [
          -44.633513752228865,
          46.12434972150505
        ]
      }
    },
    {
      "type": "Feature",
      "properties": {
        "norad_id": 30668,
        "name": "FENGYUN 1C DEB",
        "group": "fengyun-1c-debris",
        "lat": 56.827232518531844,
        "lon": -111.94782958420605,
        "alt_km": 889.8001966145412,
        "timestamp": "2025-12-06T20:37:56.350133+00:00",
        "meta_object_name": "FENGYUN 1C DEB",
        "meta_object_id": "1999-025AQA",
        "meta_epoch": "2025-12-03T03:46:19.506144",
        "meta_mean_motion": 14.12223902,
        "meta_eccentricity": 0.00784298,
        "meta_inclination": 99.1324,
        "meta_ra_of_asc_node": 50.0364,
        "meta_arg_of_pericenter": 272.9786,
        "meta_mean_anomaly": 116.1609,
        "meta_ephemeris_type": 0,
        "meta_classification_type": "U",
        "meta_norad_cat_id": 30668,
        "meta_element_set_no": 999,
        "meta_rev_at_epoch": 95920,
        "meta_bstar": 0.0023512126,
        "meta_mean_motion_dot": 4.404e-05,
        "meta_mean_motion_ddot": 0,
        "tle_line1": "1 30668U 99025AQA 25337.15717021  .00004404  00000+0  23512-2 0  9998",
        "tle_line2": "2 30668  99.1324  50.0364 0078429 272.9786 116.1609 14.12223902959207"
      },
      "geometry": {
        "type": "Point",
        "coordinates": [
          -111.94782958420605,
          56.827232518531844
        ]
      }
    },
    {
      "type": "Feature",
      "properties": {
        "norad_id": 30669,
        "name": "FENGYUN 1C DEB",
        "group": "fengyun-1c-debris",
        "lat": 21.12346296514583,
        "lon": -85.53344979239546,
        "alt_km": 968.7496090184013,
        "timestamp": "2025-12-06T20:37:56.350144+00:00",
        "meta_object_name": "FENGYUN 1C DEB",
        "meta_object_id": "1999-025AQB",
        "meta_epoch": "2025-12-06T07:33:36.775872",
        "meta_mean_motion": 14.02691388,
        "meta_eccentricity": 0.01175117,
        "meta_inclination": 98.634,
        "meta_ra_of_asc_node": 277.3152,
        "meta_arg_of_pericenter": 194.8241,
        "meta_mean_anomaly": 317.9567,
        "meta_ephemeris_type": 0,
        "meta_classification_type": "U",
        "meta_norad_cat_id": 30669,
        "meta_element_set_no": 999,
        "meta_rev_at_epoch": 95363,
        "meta_bstar": 0.0020349899,
        "meta_mean_motion_dot": 3.299e-05,
        "meta_mean_motion_ddot": 0,
        "tle_line1": "1 30669U 99025AQB 25340.31500898  .00003299  00000+0  20350-2 0  9991",
        "tle_line2": "2 30669  98.6340 277.3152 0117511 194.8241 317.9567 14.02691388953634"
      },
      "geometry": {
        "type": "Point",
        "coordinates": [
          -85.53344979239546,
          21.12346296514583
        ]
      }
    },
    {
      "type": "Feature",
      "properties": {
        "norad_id": 30670,
        "name": "FENGYUN 1C DEB",
        "group": "fengyun-1c-debris",
        "lat": 27.31250563519422,
        "lon": 20.879532511998512,
        "alt_km": 823.09471140817,
        "timestamp": "2025-12-06T20:37:56.350154+00:00",
        "meta_object_name": "FENGYUN 1C DEB",
        "meta_object_id": "1999-025AQC",
        "meta_epoch": "2025-12-06T01:59:06.978624",
        "meta_mean_motion": 14.15813406,
        "meta_eccentricity": 0.00400203,
        "meta_inclination": 98.7117,
        "meta_ra_of_asc_node": 24.6615,
        "meta_arg_of_pericenter": 88.2321,
        "meta_mean_anomaly": 302.0262,
        "meta_ephemeris_type": 0,
        "meta_classification_type": "U",
        "meta_norad_cat_id": 30670,
        "meta_element_set_no": 999,
        "meta_rev_at_epoch": 97058,
        "meta_bstar": 0.00015391765,
        "meta_mean_motion_dot": 2.62e-06,
        "meta_mean_motion_ddot": 0,
        "tle_line1": "1 30670U 99025AQC 25340.08271966  .00000262  00000+0  15392-3 0  9996",
        "tle_line2": "2 30670  98.7117  24.6615 0040020  88.2321 302.0262 14.15813406970582"
      },
      "geometry": {
        "type": "Point",
        "coordinates": [
          20.879532511998512,
          27.31250563519422
        ]
      }
    },
    {
      "type": "Feature",
      "properties": {
        "norad_id": 30671,
        "name": "FENGYUN 1C DEB",
        "group": "fengyun-1c-debris",
        "lat": 60.901333682761475,
        "lon": 28.516718493232958,
        "alt_km": 813.6559764401445,
        "timestamp": "2025-12-06T20:37:56.350165+00:00",
        "meta_object_name": "FENGYUN 1C DEB",
        "meta_object_id": "1999-025AQD",
        "meta_epoch": "2025-12-06T03:16:25.394592",
        "meta_mean_motion": 13.95429354,
        "meta_eccentricity": 0.0126632,
        "meta_inclination": 99.2533,
        "meta_ra_of_asc_node": 44.8229,
        "meta_arg_of_pericenter": 51.3729,
        "meta_mean_anomaly": 339.2032,
        "meta_ephemeris_type": 0,
        "meta_classification_type": "U",
        "meta_norad_cat_id": 30671,
        "meta_element_set_no": 999,
        "meta_rev_at_epoch": 95103,
        "meta_bstar": 0.0020388018,
        "meta_mean_motion_dot": 2.913e-05,
        "meta_mean_motion_ddot": 0,
        "tle_line1": "1 30671U 99025AQD 25340.13640503  .00002913  00000+0  20388-2 0  9995",
        "tle_line2": "2 30671  99.2533  44.8229 0126632  51.3729 339.2032 13.95429354951031"
      },
      "geometry": {
        "type": "Point",
        "coordinates": [
          28.516718493232958,
          60.901333682761475
        ]
      }
    }
  ]
}